[Satellite]
VERSION=1.1
NAME=COSMOS 2516 (753)
NICKNAME=COSMOS 2516 (753)
TLE1=1 41554U 16032A   20157.71916164 -.00000014  00000-0  00000+0 0  9996
TLE2=2 41554  64.1180 267.2828 0012560 213.8579 147.9516  2.13101764 31298
STATUS=0
